[{"OBJECT_NAME":"STARLINK-4625","OBJECT_ID":"2022-105AM","EPOCH":"2026-03-09T15:58:26.969952","MEAN_MOTION":15.01261736,"ECCENTRICITY":0.00046582,"INCLINATION":97.6012,"RA_OF_ASC_NODE":310.181,"ARG_OF_PERICENTER":56.8765,"MEAN_ANOMALY":303.2906,"EPHEMERIS_TYPE":0,"CLASSIFICATION_TYPE":"U","NORAD_CAT_ID":53683,"ELEMENT_SET_NO":999,"REV_AT_EPOCH":19323,"BSTAR":-3.288093e-6,"MEAN_MOTION_DOT":-1.01e-6,"MEAN_MOTION_DDOT":0},{"OBJECT_NAME":"CZ-2D DEB","OBJECT_ID":"2018-048E","EPOCH":"2026-03-09T22:09:24.485184","MEAN_MOTION":14.95292309,"ECCENTRICITY":0.00245463,"INCLINATION":98.262,"RA_OF_ASC_NODE":231.1035,"ARG_OF_PERICENTER":114.5757,"MEAN_ANOMALY":245.8024,"EPHEMERIS_TYPE":0,"CLASSIFICATION_TYPE":"U","NORAD_CAT_ID":43490,"ELEMENT_SET_NO":999,"REV_AT_EPOCH":41934,"BSTAR":0.00070357513,"MEAN_MOTION_DOT":7.737e-5,"MEAN_MOTION_DDOT":0}]
